satname,norad_id,inclination_deg,eccentricity,mean_motion_rev_per_day,perigee_km,apogee_km,l1,l2
STARLINK-1184,45098,53.0538,0.0003775,15.0873783,537.444081659638,542.6673171476878,1 45098U 20006BG  26032.31822399  .00022557  00000+0  14346-2 0  9994,2 45098  53.0538  49.5003 0003775  28.0906 332.0287 15.08737830331543
STARLINK-1193,45100,53.0542,0.0003182,15.45400696,428.0345475127324,432.3673737908912,1 45100U 20006BJ  26032.34266348  .00116080  00000+0  23631-2 0  9999,2 45100  53.0542  44.7607 0003182  67.3484 292.7858 15.45400696331610
STARLINK-1143,45179,53.0487,0.0002618,15.55558837,398.75399086251036,402.3033001945096,1 45179U 20012B   26032.46168108  .00105051  00000+0  14948-2 0  9997,2 45179  53.0487 145.9808 0002618 284.8260  75.2461 15.55558837330279
STARLINK-1202,45183,53.156,0.0001134,15.29363036,476.9377790333301,478.49268631970244,1 45183U 20012F   26032.50136586  .00005263  00000+0  19453-3 0  9993,2 45183  53.1560 207.3130 0001134  90.2233 269.8897 15.29363036329413
STARLINK-1216,45185,53.1597,0.0001224,15.30211649,474.3414417896938,476.0191338617524,1 45185U 20012H   26032.58334490 -.00009056  00000+0 -29389-3 0  9992,2 45185  53.1597 206.9375 0001224  85.3182  43.6374 15.30211649  5838
STARLINK-1225,45187,53.16,9.34e-05,15.3019186,474.59926874647954,475.87947945316046,1 45187U 20012K   26032.58334490 -.00002162  00000+0 -60907-4 0  9997,2 45187  53.1600 207.3772 0000934  73.5615  72.4807 15.30191860  5583
STARLINK-1230,45189,53.1604,9.38e-05,15.29289678,477.29137551914755,478.57757452786154,1 45189U 20012M   26032.58334490  .00238226  00000+0  80225-2 0  9992,2 45189  53.1604 207.4355 0000938  86.6745   8.8234 15.29289678  5681
STARLINK-1234,45190,53.0466,0.000878,15.53990896,399.13188621690097,411.0432285396573,1 45190U 20012N   26032.58334490  .00088535  00000+0  13363-2 0  9999,2 45190  53.0466 140.6716 0008780 194.3833  68.5561 15.53990896  5959
STARLINK-1269,45197,53.157,0.0002203,15.30074032,474.0813366400871,477.10108929071976,1 45197U 20012V   26032.58334490  .00034493  00000+0  11758-2 0  9996,2 45197  53.1570 207.2956 0002203  70.0398  41.4888 15.30074032  5782
STARLINK-1154,45198,53.0516,0.0002257,15.40565892,442.89820554498056,445.9779159273976,1 45198U 20012W   26032.41824612  .00079271  00000+0  19106-2 0  9997,2 45198  53.0516 182.2781 0002257 312.4552  47.6261 15.40565892329696
STARLINK-1199,45201,53.0551,0.0001292,15.06395935,546.329259962481,548.1187732491726,1 45201U 20012Z   26032.44267270  .00001046  00000+0  89123-4 0  9999,2 45201  53.0551 189.3387 0001292  79.1801 280.9333 15.06395935329651
STARLINK-1209,45206,53.0491,0.0011283,15.4442021,425.3971046125653,440.7673018665946,1 45206U 20012AE  26032.58334490  .00079556  00000+0  16819-2 0  9999,2 45206  53.0491 146.1007 0011283 175.1705 221.5088 15.44420210  5836
STARLINK-1210,45207,53.0123,0.0008011,15.89106221,299.433830313822,310.141211981605,1 45207U 20012AF  26032.58334490  .00329158  50599-4  11311-2 0  9991,2 45207  53.0123  85.5191 0008011   6.4815 237.9066 15.89106221  6034
STARLINK-1231,45212,53.0494,9.57e-05,15.18143168,510.7933048114364,512.1119722682524,1 45212U 20012AL  26032.43898191  .00019905  00000+0  97571-3 0  9990,2 45212  53.0494 181.8715 0000957 209.4901 150.6039 15.18143168329712
STARLINK-1271,45217,53.0548,0.0001197,15.06387747,546.420143155483,548.0780805906652,1 45217U 20012AR  26032.42795209  .00006780  00000+0  47378-3 0  9997,2 45217  53.0548 189.4041 0001197  99.3273 260.7852 15.06387747329657
STARLINK-1191,45222,53.1619,0.0001423,15.31032772,471.7548111415972,473.70456780142104,1 45222U 20012AW  26032.36737345  .00001765  00000+0  69987-4 0  9992,2 45222  53.1619 167.6761 0001423  94.5044 265.6120 15.31032772329953
STARLINK-1212,45223,53.0532,0.0001068,15.41819446,440.0113061224829,441.46781815615486,1 45223U 20012AX  26032.46449737  .00016570  00000+0  39378-3 0  9999,2 45223  53.0532 162.9557 0001068 328.6985  31.3956 15.41819446330036
STARLINK-1215,45225,53.156,0.0001312,15.29358975,476.82787977380576,478.62685858427903,1 45225U 20012AZ  26032.07827749  .00002426  00000+0  96363-4 0  9994,2 45225  53.1560 168.3471 0001312  76.5877 283.5270 15.29358975329877
STARLINK-1221,45227,53.0667,0.0001815,15.40503909,443.38273556151216,445.85939673952544,1 45227U 20012BB  26032.40278476  .00014965  00000+0  37244-3 0  9993,2 45227  53.0667  81.3803 0001815 266.5803  93.4993 15.40503909331119
STARLINK-1222,45228,53.057,7.76e-05,15.46472682,426.52623900039816,427.5824046935495,1 45228U 20012BC  26032.34000686  .00019773  00000+0  40001-3 0  9990,2 45228  53.0570 156.7251 0000776  50.5713 309.5362 15.46472682329996
STARLINK-1226,45229,53.1596,0.0009372,15.31047205,466.26604262298497,479.1072264435543,1 45229U 20012BD  26032.38400002  .00029135  00000+0  96527-3 0  9998,2 45229  53.1596 167.4040 0009372 312.0084  48.0118 15.31047205329851
STARLINK-1227,45230,53.1592,0.0001576,15.31042906,471.61976694062014,473.7791505924233,1 45230U 20012BE  26032.58334490 -.00007466  00000+0 -23386-3 0  9997,2 45230  53.1592 166.7918 0001576  91.5739 135.3378 15.31042906  5738
STARLINK-1246,45235,53.1553,0.0001328,15.2935713,476.8224235515081,478.64334259245334,1 45235U 20012BK  26032.58334490 -.00008335  00000+0 -27680-3 0  9999,2 45235  53.1553 206.9167 0001328 101.1093 340.5028 15.29357130  5680
STARLINK-1270,45237,53.0515,0.0001424,15.41157145,441.7217109056801,443.6642832888547,1 45237U 20012BM  26031.74746989  .00017680  00000+0  42876-3 0  9993,2 45237  53.0515 163.1878 0001424 240.4007 119.6855 15.41157145329962
STARLINK-1279,45360,53.0467,0.000817,15.49760608,411.87381280461886,422.97776239956056,1 45360U 20019A   26031.96597085  .00078870  00000+0  13879-2 0  9990,2 45360  53.0467 275.8943 0008170  95.1000 265.0941 15.49760608324961
STARLINK-1301,45361,53.0455,0.0010295,15.55655359,393.2699028467141,407.2265980774155,1 45361U 20019B   26031.96171599  .00081778  00000+0  11621-2 0  9993,2 45361  53.0455 283.1229 0010295  83.6704 276.5479 15.55655359324878
STARLINK-1262,45366,53.0548,0.0001089,15.06395229,546.4720083543743,547.9803524550671,1 45366U 20019G   26032.20124816 -.00000082  00000+0  13387-4 0  9999,2 45366  53.0548 330.4194 0001089  77.3456 282.7655 15.06395229324236
STARLINK-1273,45367,53.0745,0.0001314,15.38730114,448.96622012458647,450.76061863479936,1 45367U 20019H   26032.58334490  .01098030  00000+0  25851-1 0  9998,2 45367  53.0745 326.0121 0001314 103.9781 354.5144 15.38730114  5839
STARLINK-1276,45368,53.056,0.0001339,15.0638176,546.3401498179273,548.19477313271,1 45368U 20019J   26032.19388904  .00001267  00000+0  10398-3 0  9992,2 45368  53.0560 330.4544 0001339  91.0554 269.0589 15.06381760324230
STARLINK-1277,45369,53.055,0.0001472,15.43132655,435.86725900955025,437.87359719638334,1 45369U 20019K   26032.22700691  .00020071  00000+0  45446-3 0  9994,2 45369  53.0550 326.4384 0001472  69.5720 290.5443 15.43132655324292
STARLINK-1281,45370,53.0532,0.0001388,15.06392911,546.2720433919503,548.1945261830069,1 45370U 20019L   26032.11647174  .00002699  00000+0  20004-3 0  9999,2 45370  53.0532 330.8018 0001388  87.9823 272.1325 15.06392911324221
STARLINK-1300,45374,53.0564,0.0001966,15.063878,545.8874185558516,548.6104803111693,1 45374U 20019Q   26032.20494997 -.00000178  00000+0  69885-5 0  9999,2 45374  53.0564 330.4021 0001966  83.3061 276.8152 15.06387800324237
STARLINK-1302,45375,53.0555,9.73e-05,15.43305119,435.6996507936019,437.02575243553474,1 45375U 20019R   26032.20385958  .00059823  00000+0  13217-2 0  9991,2 45375  53.0555 326.0314 0000973  76.3526 283.7588 15.43305119324299
STARLINK-1304,45376,53.0553,0.0005218,15.42324109,435.69470025725514,442.8093274321045,1 45376U 20019S   26032.09808994  .00063150  00000+0  14401-2 0  9993,2 45376  53.0553 323.7707 0005218  95.7812 264.3788 15.42324109324317
STARLINK-1305,45377,53.049,0.0006018,15.45904173,424.62626559038745,432.8190018455316,1 45377U 20019T   26032.13535052  .00073058  00000+0  14726-2 0  9999,2 45377  53.0490 307.5077 0006018  58.6502 301.5092 15.45904173324557
STARLINK-1319,45379,53.0513,0.0006907,15.51527328,407.57595060027415,416.9562134177613,1 45379U 20019V   26032.07405935  .00112505  00000+0  18491-2 0  9994,2 45379  53.0513 307.1780 0006907  71.2646 288.9111 15.51527328324559
STARLINK-1266,45383,53.0528,0.0001835,15.41247539,441.17472716787233,443.67787389916793,1 45383U 20019Z   26032.12595155  .00073592  00000+0  17361-2 0  9996,2 45383  53.0528 306.5491 0001835 113.2067 246.9131 15.41247539324559
STARLINK-1267,45384,53.0538,0.0007885,15.43214981,431.25460991173986,442.00149439898996,1 45384U 20019AA  26032.04104495  .00098867  00000+0  21718-2 0  9994,2 45384  53.0538 301.9168 0007885 106.6414 253.5458 15.43214981324614
STARLINK-1272,45386,53.0479,0.0007429,15.48767362,415.28028783958143,425.38145140026336,1 45386U 20019AC  26032.10480810  .00075625  00000+0  13793-2 0  9992,2 45386  53.0479 286.0294 0007429  74.1056 286.0770 15.48767362324842
STARLINK-1274,45387,53.0308,0.0010591,15.4190697,433.2599187332071,447.7031164771979,1 45387U 20019AD  26032.09800963  .00064883  00000+0  14977-2 0  9995,2 45387  53.0308 277.1620 0010591 109.1204 251.0948 15.41906970324961
STARLINK-1280,45388,53.0481,0.0007471,15.57390597,390.1519803058827,400.27271890406155,1 45388U 20019AE  26032.00003472  .00082021  00000+0  10940-2 0  9997,2 45388  53.0481 301.6760 0007471  74.1813  32.0640 15.57390597  5873
STARLINK-1283,45389,53.049,0.0012703,15.48518711,412.42160093391976,429.69563732387815,1 45389U 20019AF  26032.08763333  .00076396  00000+0  14025-2 0  9991,2 45389  53.0490 286.2649 0012703 105.6363 254.6047 15.48518711324846
STARLINK-1284,45390,53.0543,0.0002967,15.4521934,428.71346927639024,432.75385312674734,1 45390U 20019AG  26032.14647586  .00072420  00000+0  14952-2 0  9994,2 45390  53.0543 305.9257 0002967 105.5496 254.5838 15.45219340324567
